UNKNOWN                 
1 85124U          22032.21915050  .00026820  00000+0  38859-2 0  9994
2 85124  82.2419 204.9041 0369338  15.8798 345.3607 14.38737401265928
UNKNOWN                 
1 85133U          22032.37848214  .00001800  00000+0  80379-3 0  9994
2 85133  98.8749  94.0030 0027797  58.3414 302.0470 14.23782926329868
UNKNOWN                 
1 85151U 86019    22032.36491449  .00003212  00000+0  10573-2 0  9998
2 85151  98.4928 230.2356 0015950 132.0963 228.1583 14.38794673274809
UNKNOWN                 
1 85159U          22031.55315693  .00003863  00000+0  19645-2 0  9999
2 85159  98.8380 297.8620 0084806 312.4494  46.9530 14.14595336299012
UNKNOWN                 
1 85175U          22032.58908740  .00020319  00000+0  40747-2 0  9994
2 85175 101.3727 313.7731 0150869 345.9907  13.7116 14.54774882418215
UNKNOWN                 
1 85205U          22027.00654201  .00000087  00000+0  73349-4 0  9995
2 85205  82.9558 285.4966 0035714 290.1122 128.9251 13.76444098411589
UNKNOWN                 
1 85210U 75052    22032.54793745  .00000098  00000+0  14431-3 0  9990
2 85210  99.7807 130.8444 0219901 324.2171  49.1833 13.68328896409100
UNKNOWN                 
1 85217U          22031.99035463  .00000770  00000+0  25092-3 0  9994
2 85217  97.9217 224.7776 0240113  32.8679 328.7179 14.26073526426152
UNKNOWN                 
1 85220U          22032.43795024  .00008219  00000+0  22917-2 0  9992
2 85220  99.4083 209.1139 0171927 123.5032 238.2714 14.38211394428333
UNKNOWN                 
1 85237U          22030.35423490  .00001450  00000+0  35374-3 0  9996
2 85237  65.5410 251.2314 0609084 299.4563  54.7043 13.80439002412203
UNKNOWN                 
1 85238U          22032.63804696  .00000012  00000+0  44296-4 0  9998
2 85238  98.8977 357.6401 0064543  61.6601 111.0452 13.87960071415202
UNKNOWN                 
1 85246U          22032.54419266  .00000676  00000+0  27545-3 0  9995
2 85246  98.0744 150.0673 0240476 114.7896 247.8503 14.15628566423192
UNKNOWN                 
1 85266U          22031.26220417  .00002227  00000+0  22575-2 0  9994
2 85266  62.7942 343.6203 3600411 159.7610 219.3548  7.75775144230761
UNKNOWN                 
1 85283U 78098    22031.05697255  .00006056  00000+0  13682-2 0  9993
2 85283  99.6944  71.1456 0029229  64.4697 295.9514 14.56431230335480
UNKNOWN                 
1 85292U          22030.47441130  .00003950  00000+0  10084-2 0  9998
2 85292  65.8324 105.8488 0059617 335.9780  23.8542 14.50563541981852
UNKNOWN                 
1 85370U          22031.08886059  .00000501  00000+0  49702-3 0  9995
2 85370  99.9560 143.5284 0009356 125.3847  51.4739 13.83778382413572
UNKNOWN                 
1 85373U          22030.05707449  .00000643  00000+0  54717-3 0  9998
2 85373 100.4358 230.6613 0055087 324.3712 187.3965 13.91270345415191
UNKNOWN                 
1 85383U          22028.00666956  .00002090  00000+0  59206-3 0  9994
2 85383  98.6495 120.3252 0104317 303.8789  55.2510 14.43512588380975
UNKNOWN                 
1 85386U          22032.24319505  .00005487  00000+0  14076-2 0  9991
2 85386  98.6379 137.4361 0114205 226.5831 162.1393 14.46839240432015
UNKNOWN                 
1 85414U          22024.84259502 -.00003611  11416-4  00000+0 0  9995
2 85414  51.6404 326.0638 0139137  70.7995 147.7938 15.99171949    18
UNKNOWN                 
1 87014U          22032.40803039  .00001372  00000+0  24610-2 0  9993
2 87014 100.5049 270.2754 0056448  15.0008 162.7548 13.43171335401053
UNKNOWN                 
1 87029U 99025    22032.11604414  .00000501  00000+0  35765-3 0  9995
2 87029  98.9114  95.4189 0084146 218.7579 140.7531 14.00233730395335
UNKNOWN                 
1 87042U 00055    22031.44407304  .00000086  00000+0  81165-4 0  9993
2 87042  98.8717 101.1486 0046050  94.4305 266.2125 14.03809005355753
UNKNOWN                 
1 87051U 76126    22032.28412446  .00001439  00000+0  55279-3 0  9990
2 87051  65.7339 347.4702 0753384  53.5902 313.2243 13.36186198399552
UNKNOWN                 
1 87054U 75052    22032.40273584  .00000729  00000+0  53011-3 0  9995
2 87054 100.0859  98.5359 0017595 146.0561 214.1729 14.00041704418301
UNKNOWN                 
1 87065U 99025    22032.04610832  .00000624  00000+0  81215-3 0  9995
2 87065  98.7014  68.6576 0336913 309.3337  47.8377 13.44143022326773
UNKNOWN                 
1 87071U 68097    22031.40382363  .00002657  00000+0  11592-2 0  9999
2 87071  61.2290  69.4679 0553745 282.5449  71.4193 13.65995680408547
UNKNOWN                 
1 87074U 77121    22031.49554789  .00000328  00000+0  42248-3 0  9998
2 87074  66.1425  79.7452 0155452 321.3861  37.6165 13.70179196409759
UNKNOWN                 
1 87079U          22032.46803841  .00037216  00000+0  30988-2 0  9992
2 87079  70.3157 300.1985 0022223 161.2624 198.9361 14.98285907442746
UNKNOWN                 
1 87091U          22030.11189903  .00023469  00000+0  10877-2 0  9992
2 87091  65.6979 302.5174 0127661 190.6090 169.2346 15.13015654445475
UNKNOWN                 
1 87113U 76126    22031.28064321  .00008610  00000+0  13219-2 0  9998
2 87113  65.6644 226.1801 0367097 226.5893 310.7555 14.37537905428194
UNKNOWN                 
1 87129U 76077    22032.57988157  .00000130  00000+0  12880-2 0  9997
2 87129 102.3364  88.5370 0035967 162.8625 197.3661 12.42071714371541
UNKNOWN                 
1 87159U          22032.20578673  .00000815  00000+0  10089-2 0  9990
2 87159  90.3051  21.8313 0121001 107.1036 254.3415 13.61176890364505
UNKNOWN                 
1 87163U 76126    22032.40307558  .00002241  00000+0  69713-3 0  9995
2 87163  65.6014  74.0365 0714183 319.1530  35.8017 13.50763827386249
UNKNOWN                 
1 87164U          22032.28368283  .00001907  00000+0  53767-3 0  9992
2 87164  65.2062  36.5468 0159118 283.0701  75.2671 14.41188398431550
UNKNOWN                 
1 87203U          22025.23788085  .00004219  00000+0  96522-3 0  9994
2 87203  98.8798 311.0743 0064443 341.7342  18.1539 14.54980694345857
UNKNOWN                 
1 87204U          22032.49138331  .00000971  00000+0  46252-3 0  9990
2 87204  98.6767 265.8194 0051598 108.5108 252.1685 14.20875922424674
UNKNOWN                 
1 87211U          22031.48815462  .00001320  00000+0  49595-3 0  9995
2 87211  99.0080 303.0815 0068565 345.4228 189.4836 14.32090648504976
UNKNOWN                 
1 87213U 99025    22032.25590510  .00022549  00000+0  27266-2 0  9998
2 87213  99.0439 209.4899 0060431 212.5766 147.1710 14.82406894352479
UNKNOWN                 
1 87214U 70025    22032.35288681  .00000651  00000+0  67419-3 0  9997
2 87214 100.3363 246.7542 0079014 263.9202  95.2938 13.78901753405576
UNKNOWN                 
1 87222U          22032.58457063  .00053543  00000+0  27189-2 0  9996
2 87222  98.9606 337.9990 0056093  26.4926 333.9150 15.15311257536091
UNKNOWN                 
1 87228U 99025    22031.55731234  .00005669  00000+0  20047-2 0  9990
2 87228  98.9266 157.3154 0043049 301.1060  58.5903 14.34504125401774
UNKNOWN                 
1 87235U          22029.66233887  .00001116  00000+0  42832-3 0  9993
2 87235  98.9466 174.1834 0150933 352.7084   7.1900 14.26532038383596
UNKNOWN                 
1 87237U 99025    22032.30173703  .00000332  00000+0  29213-3 0  9992
2 87237  99.4307  63.4614 0106499 121.7376 298.2767 13.90042156415700
UNKNOWN                 
1 87239U 81053    22032.63355247  .00002362  00000+0  98325-3 0  9992
2 87239  82.8864 167.9911 0029268  69.3770 291.0548 14.25763554425563
UNKNOWN                 
1 87245U 71015    22032.39145706  .00001389  00000+0  37780-3 0  9992
2 87245  65.6629 142.5609 0511961  79.8872 341.8998 13.93748003416352
UNKNOWN                 
1 87256U 99025    22031.04450557  .00000712  00000+0  45192-3 0  9994
2 87256  98.8601 102.5787 0044217  52.0520 308.4632 14.06529504385169
UNKNOWN                 
1 87271U 71015    22032.46969188  .00004556  00000+0  11170-2 0  9990
2 87271  65.7767 314.7390 0549911  64.9720 300.7404 13.88882916414572
UNKNOWN                 
1 87280U          22032.50227529  .00000161  00000+0  38126-3 0  9996
2 87280  64.6161 117.6871 0128381 238.2342 120.6136 13.47022544343808
UNKNOWN                 
1 87293U 71015    22032.54992245  .00001447  00000+0  38515-3 0  9992
2 87293  65.9082 206.2482 0519563  31.9336 331.2138 13.93115032416111
UNKNOWN                 
1 87300U 70025    22032.49790636  .00000781  00000+0  63738-3 0  9990
2 87300 100.1018 229.7765 0031803  70.3787 290.0798 13.93045600416395
UNKNOWN                 
1 87304U          22030.70508785  .00000629  00000+0  11437-3 0  9994
2 87304  74.0189 186.6148 0020285 157.1682 203.0395 14.68272510438827
UNKNOWN                 
1 87305U 93036    22031.33138727  .00005180  00000+0  98547-3 0  9995
2 87305  73.9971  64.1065 0035887 203.7565 156.1948 14.63955869266859
UNKNOWN                 
1 87320U 71015    22032.42524096  .00001251  00000+0  86748-3 0  9999
2 87320  66.5977 182.9527 0449815 227.4077 128.8217 13.62135714401193
UNKNOWN                 
1 87334U          22032.40903755  .00003384  00000+0  43574-2 0  9999
2 87334  89.9966 270.9582 0077853 224.5886 134.8992 13.61108386192603
UNKNOWN                 
1 87335U          22032.57857038  .00003694  00000+0  47267-2 0  9997
2 87335  89.9825 269.4455 0080091 201.8446 157.9290 13.61425747192686
UNKNOWN                 
1 87382U 93016    22014.56024837  .00025845  00000+0  32141-2 0  9997
2 87382  70.9580 311.7541 0006560 229.0072 131.0519 14.82445124346200
UNKNOWN                 
1 87397U 94029    22030.72734856  .00013397  00000+0  23595-2 0  9995
2 87397  81.2439 195.9721 0014194 259.9442 100.0159 14.67426187349302
UNKNOWN                 
1 87405U 81053    22032.46302453  .00000786  00000+0  62795-3 0  9999
2 87405  82.7553  83.9044 0056683  50.2549 310.3588 13.89012579414953
UNKNOWN                 
1 87410U 76077    22032.29267439  .00000897  00000+0  86103-2 0  9991
2 87410 102.2698 337.9775 0196882  66.3374 295.8207 12.19356007364925
